{"type": "FeatureCollection", "features": [{"type": "Feature", "properties": {"norad_id": 2807, "name": "OPS 7218 (TRANSIT 16)", "group": "nnss", "lat": -66.20984059000261, "lon": -7.064380916661679, "alt_km": 1091.6188482243542, "timestamp": "2025-12-22T22:44:21.243954+00:00", "meta": {"OBJECT_NAME": "OPS 7218 (TRANSIT 16)", "OBJECT_ID": "1967-048A", "EPOCH": "2025-12-22T11:11:04.665408", "MEAN_MOTION": 13.50724324, "ECCENTRICITY": 0.00221616, "INCLINATION": 89.6731, "RA_OF_ASC_NODE": 353.6935, "ARG_OF_PERICENTER": 88.1678, "MEAN_ANOMALY": 26.1167, "EPHEMERIS_TYPE": 0, "CLASSIFICATION_TYPE": "U", "NORAD_CAT_ID": 2807, "ELEMENT_SET_NO": 999, "REV_AT_EPOCH": 88407, "BSTAR": 0.00015711372, "MEAN_MOTION_DOT": 1.12e-06, "MEAN_MOTION_DDOT": 0}, "tle": {"line1": "1 02807U 67048A   25356.46602622  .00000112  00000+0  15711-3 0  9992", "line2": "2 02807  89.6731 353.6935 0022161  88.1678  26.1167 13.50724324884078"}}, "geometry": {"type": "Point", "coordinates": [-7.064380916661679, -66.20984059000261]}}, {"type": "Feature", "properties": {"norad_id": 2965, "name": "OPS 4947 (TRANSIT 17)", "group": "nnss", "lat": 81.76858047296703, "lon": -161.54717682403972, "alt_km": 1061.6911226748844, "timestamp": "2025-12-22T22:44:21.243977+00:00", "meta": {"OBJECT_NAME": "OPS 4947 (TRANSIT 17)", "OBJECT_ID": "1967-092A", "EPOCH": "2025-12-22T13:56:16.742976", "MEAN_MOTION": 13.53456096, "ECCENTRICITY": 0.00469075, "INCLINATION": 89.2487, "RA_OF_ASC_NODE": 23.6848, "ARG_OF_PERICENTER": 205.2418, "MEAN_ANOMALY": 267.7074, "EPHEMERIS_TYPE": 0, "CLASSIFICATION_TYPE": "U", "NORAD_CAT_ID": 2965, "ELEMENT_SET_NO": 999, "REV_AT_EPOCH": 87230, "BSTAR": 0.00018778756, "MEAN_MOTION_DOT": 1.38e-06, "MEAN_MOTION_DDOT": 0}, "tle": {"line1": "1 02965U 67092A   25356.58074934  .00000138  00000+0  18779-3 0  9993", "line2": "2 02965  89.2487  23.6848 0046907 205.2418 267.7074 13.53456096872306"}}, "geometry": {"type": "Point", "coordinates": [-161.54717682403972, 81.76858047296703]}}, {"type": "Feature", "properties": {"norad_id": 3133, "name": "OPS 7034 (TRANSIT 18)", "group": "nnss", "lat": 0.7663791373701576, "lon": 93.6683241613715, "alt_km": 1026.150394523691, "timestamp": "2025-12-22T22:44:21.243990+00:00", "meta": {"OBJECT_NAME": "OPS 7034 (TRANSIT 18)", "OBJECT_ID": "1968-012A", "EPOCH": "2025-12-22T08:13:15.489696", "MEAN_MOTION": 13.51567899, "ECCENTRICITY": 0.00747579, "INCLINATION": 90.0285, "RA_OF_ASC_NODE": 273.6662, "ARG_OF_PERICENTER": 141.502, "MEAN_ANOMALY": 335.4654, "EPHEMERIS_TYPE": 0, "CLASSIFICATION_TYPE": "U", "NORAD_CAT_ID": 3133, "ELEMENT_SET_NO": 999, "REV_AT_EPOCH": 57048, "BSTAR": 0.00020203127, "MEAN_MOTION_DOT": 1.44e-06, "MEAN_MOTION_DDOT": 0}, "tle": {"line1": "1 03133U 68012A   25356.34254039  .00000144  00000+0  20203-3 0  9996", "line2": "2 03133  90.0285 273.6662 0074757 141.5020 335.4654 13.51567899570489"}}, "geometry": {"type": "Point", "coordinates": [93.6683241613715, 0.7663791373701576]}}, {"type": "Feature", "properties": {"norad_id": 4507, "name": "NNSS 19 (TRANSIT 19)", "group": "nnss", "lat": 40.71442783548882, "lon": 54.54508224080565, "alt_km": 1134.2086098223062, "timestamp": "2025-12-22T22:44:21.244003+00:00", "meta": {"OBJECT_NAME": "NNSS 19 (TRANSIT 19)", "OBJECT_ID": "1970-067A", "EPOCH": "2025-12-22T09:35:43.059552", "MEAN_MOTION": 13.5131705, "ECCENTRICITY": 0.01702199, "INCLINATION": 90.005, "RA_OF_ASC_NODE": 234.5405, "ARG_OF_PERICENTER": 265.1051, "MEAN_ANOMALY": 93.0648, "EPHEMERIS_TYPE": 0, "CLASSIFICATION_TYPE": "U", "NORAD_CAT_ID": 4507, "ELEMENT_SET_NO": 999, "REV_AT_EPOCH": 72352, "BSTAR": 0.00016490371, "MEAN_MOTION_DOT": 1.25e-06, "MEAN_MOTION_DDOT": 0}, "tle": {"line1": "1 04507U 70067A   25356.39980393  .00000125  00000+0  16490-3 0  9991", "line2": "2 04507  90.0050 234.5405 0170219 265.1051  93.0648 13.51317050723520"}}, "geometry": {"type": "Point", "coordinates": [54.54508224080565, 40.71442783548882]}}, {"type": "Feature", "properties": {"norad_id": 6909, "name": "NNSS 20 (TRANSIT 20)", "group": "nnss", "lat": -51.804332038025166, "lon": 75.08410110983424, "alt_km": 1116.4645229129164, "timestamp": "2025-12-22T22:44:21.244015+00:00", "meta": {"OBJECT_NAME": "NNSS 20 (TRANSIT 20)", "OBJECT_ID": "1973-081A", "EPOCH": "2025-12-22T02:21:26.013600", "MEAN_MOTION": 13.71439096, "ECCENTRICITY": 0.0156327, "INCLINATION": 89.8562, "RA_OF_ASC_NODE": 254.914, "ARG_OF_PERICENTER": 50.5929, "MEAN_ANOMALY": 310.8956, "EPHEMERIS_TYPE": 0, "CLASSIFICATION_TYPE": "U", "NORAD_CAT_ID": 6909, "ELEMENT_SET_NO": 999, "REV_AT_EPOCH": 80489, "BSTAR": 0.00027894557, "MEAN_MOTION_DOT": 2.85e-06, "MEAN_MOTION_DDOT": 0}, "tle": {"line1": "1 06909U 73081A   25356.09821775  .00000285  00000+0  27895-3 0  9991", "line2": "2 06909  89.8562 254.9140 0156327  50.5929 310.8956 13.71439096804897"}}, "geometry": {"type": "Point", "coordinates": [75.08410110983424, -51.804332038025166]}}, {"type": "Feature", "properties": {"norad_id": 10457, "name": "TRANSAT", "group": "nnss", "lat": 58.4494303194313, "lon": 78.8095175966848, "alt_km": 1074.5927107912212, "timestamp": "2025-12-22T22:44:21.244026+00:00", "meta": {"OBJECT_NAME": "TRANSAT", "OBJECT_ID": "1977-106A", "EPOCH": "2025-12-22T04:43:59.924640", "MEAN_MOTION": 13.48945163, "ECCENTRICITY": 0.0026228, "INCLINATION": 89.6479, "RA_OF_ASC_NODE": 78.2623, "ARG_OF_PERICENTER": 162.6687, "MEAN_ANOMALY": 214.9455, "EPHEMERIS_TYPE": 0, "CLASSIFICATION_TYPE": "U", "NORAD_CAT_ID": 10457, "ELEMENT_SET_NO": 999, "REV_AT_EPOCH": 36871, "BSTAR": 0.00016513241, "MEAN_MOTION_DOT": 1.14e-06, "MEAN_MOTION_DDOT": 0}, "tle": {"line1": "1 10457U 77106A   25356.19722135  .00000114  00000+0  16513-3 0  9993", "line2": "2 10457  89.6479  78.2623 0026228 162.6687 214.9455 13.48945163368715"}}, "geometry": {"type": "Point", "coordinates": [78.8095175966848, 58.4494303194313]}}, {"type": "Feature", "properties": {"norad_id": 12458, "name": "NOVA 1", "group": "nnss", "lat": 81.45211895628545, "lon": -89.7404085032036, "alt_km": 1153.6441617912224, "timestamp": "2025-12-22T22:44:21.244037+00:00", "meta": {"OBJECT_NAME": "NOVA 1", "OBJECT_ID": "1981-044A", "EPOCH": "2025-12-22T13:13:40.325952", "MEAN_MOTION": 13.2327954, "ECCENTRICITY": 0.00158143, "INCLINATION": 89.8526, "RA_OF_ASC_NODE": 91.2465, "ARG_OF_PERICENTER": 79.8958, "MEAN_ANOMALY": 291.7383, "EPHEMERIS_TYPE": 0, "CLASSIFICATION_TYPE": "U", "NORAD_CAT_ID": 12458, "ELEMENT_SET_NO": 999, "REV_AT_EPOCH": 15316, "BSTAR": 0.0001659475, "MEAN_MOTION_DOT": 7.9e-07, "MEAN_MOTION_DDOT": 0}, "tle": {"line1": "1 12458U 81044A   25356.55116118  .00000079  00000+0  16595-3 0  9990", "line2": "2 12458  89.8526  91.2465 0015814  79.8958 291.7383 13.23279540153167"}}, "geometry": {"type": "Point", "coordinates": [-89.7404085032036, 81.45211895628545]}}, {"type": "Feature", "properties": {"norad_id": 15362, "name": "NOVA 3", "group": "nnss", "lat": -37.407829714507336, "lon": 80.74801958666995, "alt_km": 1158.233867614692, "timestamp": "2025-12-22T22:44:21.244048+00:00", "meta": {"OBJECT_NAME": "NOVA 3", "OBJECT_ID": "1984-110A", "EPOCH": "2025-12-22T06:53:41.383392", "MEAN_MOTION": 13.23045723, "ECCENTRICITY": 0.00299536, "INCLINATION": 90.1219, "RA_OF_ASC_NODE": 80.647, "ARG_OF_PERICENTER": 304.4624, "MEAN_ANOMALY": 115.4974, "EPHEMERIS_TYPE": 0, "CLASSIFICATION_TYPE": "U", "NORAD_CAT_ID": 15362, "ELEMENT_SET_NO": 999, "REV_AT_EPOCH": 98825, "BSTAR": 0.0002233324, "MEAN_MOTION_DOT": 1.02e-06, "MEAN_MOTION_DDOT": 0}, "tle": {"line1": "1 15362U 84110A   25356.28728453  .00000102  00000+0  22333-3 0  9999", "line2": "2 15362  90.1219  80.6470 0029953 304.4624 115.4974 13.23045723988250"}}, "geometry": {"type": "Point", "coordinates": [80.74801958666995, -37.407829714507336]}}, {"type": "Feature", "properties": {"norad_id": 15935, "name": "OSCAR 30", "group": "nnss", "lat": 16.397751424192933, "lon": -79.93729495160204, "alt_km": 1162.0001077311526, "timestamp": "2025-12-22T22:44:21.244059+00:00", "meta": {"OBJECT_NAME": "OSCAR 30", "OBJECT_ID": "1985-066A", "EPOCH": "2025-12-22T13:00:22.498848", "MEAN_MOTION": 13.36079837, "ECCENTRICITY": 0.01690546, "INCLINATION": 90.1654, "RA_OF_ASC_NODE": 100.0074, "ARG_OF_PERICENTER": 56.5253, "MEAN_ANOMALY": 315.6602, "EPHEMERIS_TYPE": 0, "CLASSIFICATION_TYPE": "U", "NORAD_CAT_ID": 15935, "ELEMENT_SET_NO": 999, "REV_AT_EPOCH": 96584, "BSTAR": 0.00017055063, "MEAN_MOTION_DOT": 1.05e-06, "MEAN_MOTION_DDOT": 0}, "tle": {"line1": "1 15935U 85066A   25356.54192707  .00000105  00000+0  17055-3 0  9990", "line2": "2 15935  90.1654 100.0074 0169054  56.5253 315.6602 13.36079837965845"}}, "geometry": {"type": "Point", "coordinates": [-79.93729495160204, 16.397751424192933]}}, {"type": "Feature", "properties": {"norad_id": 15936, "name": "OSCAR 24", "group": "nnss", "lat": -52.16305227981083, "lon": -87.7448030867996, "alt_km": 1257.2996073724862, "timestamp": "2025-12-22T22:44:21.244082+00:00", "meta": {"OBJECT_NAME": "OSCAR 24", "OBJECT_ID": "1985-066B", "EPOCH": "2025-12-22T05:41:31.379136", "MEAN_MOTION": 13.359371, "ECCENTRICITY": 0.01702147, "INCLINATION": 90.1791, "RA_OF_ASC_NODE": 92.4734, "ARG_OF_PERICENTER": 63.8209, "MEAN_ANOMALY": 353.8432, "EPHEMERIS_TYPE": 0, "CLASSIFICATION_TYPE": "U", "NORAD_CAT_ID": 15936, "ELEMENT_SET_NO": 999, "REV_AT_EPOCH": 96770, "BSTAR": 0.00016124907, "MEAN_MOTION_DOT": 9.9e-07, "MEAN_MOTION_DDOT": 0}, "tle": {"line1": "1 15936U 85066B   25356.23716874  .00000099  00000+0  16125-3 0  9993", "line2": "2 15936  90.1791  92.4734 0170214  63.8209 353.8432 13.35937100967704"}}, "geometry": {"type": "Point", "coordinates": [-87.7448030867996, -52.16305227981083]}}]}